{"fetched_at":"2026-03-29T16:36:15Z","count":15609,"tles":[{"name":"STARLINK-6350","line1":"1 57226U 23094J   26087.84884887  .00003193  00000+0  12861-3 0  9994","line2":"2 57226  43.0004 282.6828 0001707 271.4592  88.6064 15.26758940150045","category":"Starlink"}]}